STARLINK-1398           
1 45699U 20035AU  22289.49235109 -.00004301  00000+0 -27008-3 0  9998
2 45699  53.0546 204.0883 0001705 118.1527 241.9634 15.06387851131863
STARLINK-1400           
1 45700U 20035AV  22289.48866369 -.00003150  00000+0 -19273-3 0  9994
2 45700  53.0554 204.0958 0001343 106.4599 253.6538 15.06384637131812
STARLINK-1403           
1 45701U 20035AW  22289.18641020 -.00000323  00000+0 -27896-5 0  9998
2 45701  53.0538 205.4644 0001297  77.6620 282.4514 15.06410098131774
STARLINK-1405           
1 45702U 20035AX  22289.49973603 -.00003904  00000+0 -24351-3 0  9997
2 45702  53.0565 204.0463 0001984 117.9699 242.1491 15.06375187132212
STARLINK-1407           
1 45703U 20035AY  22289.03160376 -.00000173  00000+0  73188-5 0  9991
2 45703  53.0521 206.1606 0001579 100.8329 259.2837 15.06399747131746
STARLINK-1409           
1 45704U 20035AZ  22289.12372360  .00002209  00000+0  16713-3 0  9990
2 45704  53.0528 235.7469 0001520  80.9885 279.1276 15.06398734131349
STARLINK-1410           
1 45705U 20035BA  22289.21682071 -.00001584  00000+0 -87461-4 0  9990
2 45705  53.0549 235.3062 0001386  74.1535 285.9607 15.06396558131351
STARLINK-1411           
1 45706U 20035BB  22289.14218234 -.00000889  00000+0 -40791-4 0  9991
2 45706  53.0547 205.6443 0001402 101.7548 258.3599 15.06392830131761
STARLINK-1412           
1 45707U 20035BC  22289.13849208 -.00002141  00000+0 -12483-3 0  9991
2 45707  53.0556 205.6817 0001331  86.1392 273.9749 15.06417386131765
STARLINK-1418           
1 45708U 20035BD  22288.78095340 -.00002502  00000+0 -14916-3 0  9996
2 45708  53.0545 207.2725 0001538  86.2723 273.8442 15.06395311132121
STARLINK-1421           
1 45709U 20035BE  22289.48130137 -.00001857  00000+0 -10584-3 0  9998
2 45709  53.0547 204.1430 0001471  99.2892 260.8263 15.06382935131810
STARLINK-1423           
1 45710U 20035BF  22288.15067024  .00000230  00000+0  34308-4 0  9990
2 45710  53.0549 210.1179 0001252  92.2972 267.8160 15.06387080132023
STARLINK-1433           
1 45711U 20035BG  22289.12745090  .00006865  00000+0  47969-3 0  9991
2 45711  53.0537 205.7162 0001342 114.3815 245.7314 15.06372506131768
STARLINK-1434           
1 45712U 20035BH  22289.12374467  .00000786  00000+0  71643-4 0  9991
2 45712  53.0526 205.7344 0001467  94.1602 265.9554 15.06407234131763
STARLINK-1436 (VISORSAT)
1 45713U 20035BJ  22288.81228789  .00000339  00000+0  41634-4 0  9993
2 45713  53.0533 227.1180 0001512  90.6167 269.4995 15.06401971131430
STARLINK-1437           
1 45714U 20035BK  22288.73672868  .00001035  00000+0  88367-4 0  9994
2 45714  53.0549 207.4769 0001261  87.5131 272.6002 15.06400948132113
STARLINK-1461           
1 45730U 20038A   22289.14586906 -.00000197  00000+0  56968-5 0  9990
2 45730  53.0536  45.6399 0001410  59.1202 300.9926 15.06391759130339
STARLINK-1465           
1 45731U 20038B   22289.49236262 -.00002062  00000+0 -11969-3 0  9990
2 45731  53.0563  44.0838 0001591  56.5343 303.5798 15.06372815130235
STARLINK-1466           
1 45732U 20038C   22289.48129713 -.00005396  00000+0 -34391-3 0  9999
2 45732  53.0563  44.1344 0001502  62.6925 297.4217 15.06372788130387
STARLINK-1467           
1 45733U 20038D   22289.03644537  .00019545  00000+0  12519-2 0  9993
2 45733  53.0542  45.5453 0001294  83.9994 276.1143 15.08565902130310
STARLINK-1468           
1 45734U 20038E   22289.04865180  .00019204  00000+0  12555-2 0  9996
2 45734  53.0545  45.8346 0001163  94.5144 265.5979 15.07822875130311
STARLINK-1471           
1 45735U 20038F   22288.71093109 -.00000023  00000+0  17357-4 0  9991
2 45735  53.0552  47.5952 0001668  78.2712 281.8464 15.06396472129149
STARLINK-1472           
1 45736U 20038G   22288.68719914  .00016569  00000+0  39854-3 0  9993
2 45736  53.0628 351.6233 0003229  14.0944 346.0150 15.41453231129945
STARLINK-1474           
1 45738U 20038J   22289.49602790 -.00010556  00000+0 -69127-3 0  9996
2 45738  53.0549  44.0748 0001445  69.7929 290.3215 15.06376494130380
STARLINK-1475           
1 45739U 20038K   22289.31079871 -.00000128  00000+0  10327-4 0  9998
2 45739  53.0590   4.8967 0001731  50.5944 309.5198 15.06389007130766
STARLINK-1479           
1 45740U 20038L   22289.17165733  .00002385  00000+0  17894-3 0  9998
2 45740  53.0549  45.5284 0002003 101.5781 258.5433 15.06409249130334
STARLINK-1480           
1 45741U 20038M   22289.47391387  .00000134  00000+0  27923-4 0  9993
2 45741  53.0539  44.1612 0001374  70.1883 289.9254 15.06396396130380
STARLINK-1481           
1 45742U 20038N   22289.46654948 -.00005071  00000+0 -32192-3 0  9998
2 45742  53.0557  44.1916 0001570  60.5645 299.5501 15.06383468130372
STARLINK-1483           
1 45743U 20038P   22289.48400553 -.00001172  00000+0 -59811-4 0  9998
2 45743  53.0548  44.0494 0001440  67.5090 292.6052 15.06399832130232
STARLINK-1500           
1 45744U 20038Q   22289.38913229  .00000616  00000+0  60226-4 0  9999
2 45744  53.0568  44.5512 0001777  80.1002 280.0188 15.06414645130172
STARLINK-1503           
1 45745U 20038R   22289.31173188 -.00000692  00000+0 -27560-4 0  9995
2 45745  53.0550  44.8923 0001473  72.5527 287.5623 15.06389638130161
STARLINK-1504           
1 45746U 20038S   22289.39282521 -.00005985  00000+0 -38342-3 0  9995
2 45746  53.0542  44.5454 0001864  52.7055 307.4103 15.06380090130178
STARLINK-1506           
1 45747U 20038T   22288.79938835 -.00001036  00000+0 -50636-4 0  9999
2 45747  53.0557  47.2018 0001471  59.4528 300.6606 15.06395197129168
STARLINK-1507           
1 45748U 20038U   22288.72104381 -.00000483  00000+0 -13524-4 0  9994
2 45748  53.0564  47.5323 0001552  64.0078 296.1070 15.06389772129145
STARLINK-1391           
1 45750U 20038W   22289.47944560  .00003618  00000+0  26169-3 0  9990
2 45750  53.0549  24.1410 0001685  57.5747 302.5405 15.06395278130667
STARLINK-1464           
1 45751U 20038X   22288.67959738 -.00000580  00000+0 -20049-4 0  9994
2 45751  53.0561  27.7405 0001675  55.1182 304.9964 15.06396926129431
STARLINK-1476           
1 45753U 20038Z   22289.48678016 -.00026107  00000+0 -17347-2 0  9991
2 45753  53.0556  24.0967 0002354  54.0548 306.0659 15.06513447130669
STARLINK-1477           
1 45754U 20038AA  22289.49051694 -.00002501  00000+0 -14915-3 0  9991
2 45754  53.0569  24.0873 0001591  64.8886 295.2268 15.06379412130517
STARLINK-1478           
1 45755U 20038AB  22289.44259042 -.00000044  00000+0  15890-4 0  9997
2 45755  53.0570  24.2962 0000574  83.5019 276.6036 15.06393984130658
STARLINK-1484           
1 45756U 20038AC  22289.50430715 -.00005504  00000+0 -35117-3 0  9993
2 45756  53.0542  24.0280 0001356  57.3435 302.7685 15.06373091130668
STARLINK-1486           
1 45757U 20038AD  22289.45734481 -.00000946  00000+0 -44620-4 0  9990
2 45757  53.0556  24.2453 0001544  63.9282 296.1865 15.06377651130651
STARLINK-1487           
1 45758U 20038AE  22289.44995805 -.00003275  00000+0 -20112-3 0  9996
2 45758  53.0583  24.2740 0002649  54.7609 305.3628 15.06387294130653
STARLINK-1493           
1 45759U 20038AF  22289.49789236 -.00002005  00000+0 -11581-3 0  9991
2 45759  53.0565  24.0624 0001689  40.2816 319.8298 15.06371645130472
STARLINK-1494           
1 45760U 20038AG  22289.50157381 -.00003073  00000+0 -18758-3 0  9994
2 45760  53.0548  24.0307 0001451  72.2935 287.8213 15.06378790130476
STARLINK-1495           
1 45761U 20038AH  22289.32569837  .00065697  00000+0  36530-3 0  9994
2 45761  53.0380 207.8120 0000779 130.4378 229.6711 15.78890946132936
STARLINK-1499           
1 45762U 20038AJ  22288.96545864  .00022363  00000+0  13539-2 0  9994
2 45762  53.0560  23.9366 0001603  47.3571 312.7554 15.10546265130434
STARLINK-1502           
1 45764U 20038AL  22288.66853785 -.00000399  00000+0 -78531-5 0  9990
2 45764  53.0552  27.7881 0001669  59.7966 300.3188 15.06394055129435
STARLINK-1509           
1 45766U 20038AN  22289.12192160  .00003326  00000+0  24208-3 0  9998
2 45766  53.0555  25.7371 0001880  56.6110 303.5058 15.06403359130413
STARLINK-1511           
1 45767U 20038AP  22289.44626924 -.00011625  00000+0 -76323-3 0  9992
2 45767  53.0542  24.2941 0002022  44.8134 315.3018 15.06377211130460
STARLINK-1521           
1 45768U 20038AQ  22289.49418634 -.00006941  00000+0 -44771-3 0  9992
2 45768  53.0544  24.0593 0001538  65.3773 294.7376 15.06384714130476
STARLINK-1459           
1 45769U 20038AR  22289.31909978  .00001712  00000+0  13385-3 0  9996
2 45769  53.0535  44.8634 0002260  69.3584 290.7648 15.06397962130354
STARLINK-1462           
1 45770U 20038AS  22288.65838746  .00000052  00000+0  22407-4 0  9990
2 45770  53.0543   7.8371 0001851  45.1177 314.9962 15.06391761129691
STARLINK-1463           
1 45771U 20038AT  22289.11638433 -.00000529  00000+0 -16655-4 0  9993
2 45771  53.0554   5.7763 0001458  74.9873 285.1277 15.06391081130888
STARLINK-1470           
1 45772U 20038AU  22289.50340985 -.00001662  00000+0 -92663-4 0  9991
2 45772  53.0581   4.0355 0001842  58.4749 301.6419 15.06399826130948
STARLINK-1482           
1 45773U 20038AV  22288.50082523 -.00000290  00000+0 -54974-6 0  9993
2 45773  53.0551   8.5373 0001692  62.3720 297.7440 15.06398625129685
STARLINK-1485           
1 45774U 20038AW  22289.13480991 -.00002049  00000+0 -11870-3 0  9994
2 45774  53.0547   5.6972 0001879  53.8381 306.2782 15.06391656130896
STARLINK-1488           
1 45775U 20038AX  22289.47023972 -.00001247  00000+0 -64813-4 0  9999
2 45775  53.0544   4.1946 0001597  54.7923 305.3216 15.06399470130791
STARLINK-1489           
1 45776U 20038AY  22289.14587894 -.00001100  00000+0 -54970-4 0  9993
2 45776  53.0561   5.6438 0001990  41.7082 318.4058 15.06393096130890
STARLINK-1490           
1 45777U 20038AZ  22289.47393006 -.00002397  00000+0 -14207-3 0  9997
2 45777  53.0556   4.1710 0001852  42.6955 317.4178 15.06390375130954
STARLINK-1491           
1 45778U 20038BA  22289.19011334  .00003143  00000+0  22989-3 0  9992
2 45778  53.0555   5.4306 0001675  67.1456 292.9710 15.06385199130890
